SAR-LUPE 2              
1 31797U 07030A   26146.95651017  .00013428  00000+0  26992-3 0  9998
2 31797  98.1018 248.8218 0012528 179.1555 180.9716 15.46704133 53655
SAPPHIRE                
1 39088U 13009C   26146.96848844  .00000115  00000+0  55304-4 0  9998
2 39088  98.4256 326.9290 0010315 316.9578  43.0801 14.35233972693535
PRAETORIAN SDA_602      
1 65565U 25203A   26146.77491499  .00000085  00000+0  65574-4 0  9991
2 65565  81.3048  30.6037 0004944 250.2975 109.7648 13.84340787 35731
PRAETORIAN SDA_603      
1 65566U 25203B   26146.79483183  .00000273  00000+0  23511-3 0  9998
2 65566  81.3054  30.4868 0008538 250.8471 109.1762 13.83902767 35742
PRAETORIAN SDA_604      
1 65567U 25203C   26146.72894736  .00000114  00000+0  93381-4 0  9999
2 65567  81.3070  30.9268 0004563 259.8956 100.1685 13.83043828 35717
PRAETORIAN SDA_605      
1 65568U 25203D   26146.77259888  .00000098  00000+0  78393-4 0  9995
2 65568  81.3034  30.5705 0007217 246.3845 113.6554 13.83431716 35730
PRAETORIAN SDA_606      
1 65569U 25203E   26146.75473039  .00000096  00000+0  76199-4 0  9990
2 65569  81.3071  30.7995 0004848 246.5999 113.4648 13.83404534 35723
PRAETORIAN SDA_607      
1 65570U 25203F   26146.77633162  .00000177  00000+0  14769-3 0  9993
2 65570  81.3052  30.4752 0007796 250.3597 109.6719 13.84282736 35741
PRAETORIAN SDA_608      
1 65571U 25203G   26146.81880914  .00000095  00000+0  74891-4 0  9990
2 65571  81.3023  30.5898 0005048 257.8179 102.2412 13.83813947 35739
PRAETORIAN SDA_609      
1 65572U 25203H   26146.75836733  .00000338  00000+0  29207-3 0  9994
2 65572  81.3066  30.6345 0005899 249.1054 110.9472 13.84281456 35732
PRAETORIAN SDA_610      
1 65573U 25203J   26146.72680630  .00000082  00000+0  63420-4 0  9997
2 65573  81.3015  30.6338 0005701 254.0776 105.9752 13.83849929 35725
PRAETORIAN SDA_611      
1 65574U 25203K   26146.79150330  .00000357  00000+0  31480-3 0  9999
2 65574  81.3033  30.7217 0004647 262.6089  97.4539 13.83307073 35720
PRAETORIAN SDA_612      
1 65575U 25203L   26146.80779772  .00001209  00000+0  10587-2 0  9990
2 65575  81.3049  30.3446 0008050 241.1879 118.8471 13.85044369 35753
PRAETORIAN SDA_613      
1 65576U 25203M   26146.78983733  .00000150  00000+0  12703-3 0  9999
2 65576  81.3017  30.7037 0004719 250.0534 110.0114 13.82763146 35727
PRAETORIAN SDA_614      
1 65577U 25203N   26146.79296971  .00000101  00000+0  79050-4 0  9997
2 65577  81.3030  30.4319 0006169 248.1108 111.9394 13.84775860 35750
PRAETORIAN SDA_615      
1 65578U 25203P   26146.76456948  .00000225  00000+0  19019-3 0  9992
2 65578  81.3039  30.4084 0008048 248.4976 111.5323 13.84433768 35748
PRAETORIAN SDA_616      
1 65579U 25203Q   26146.79007235  .00000254  00000+0  22055-3 0  9993
2 65579  81.3079  30.8541 0004542 260.4565  99.6078 13.83264919 35728
PRAETORIAN SDA_617      
1 65580U 25203R   26146.80986185  .00000094  00000+0  74911-4 0  9998
2 65580  81.3053  30.6690 0006428 248.4344 111.6127 13.83148249 35739
PRAETORIAN SDA_618      
1 65581U 25203S   26146.80678123  .00000285  00000+0  24237-3 0  9996
2 65581  81.3039  30.3081 0008765 250.1789 109.8423 13.84772861 35758
PRAETORIAN SDA_619      
1 65582U 25203T   26146.75721357  .00000237  00000+0  20279-3 0  9998
2 65582  81.3061  30.6172 0007052 247.8345 112.2063 13.83941114 36361
PRAETORIAN SDA_620      
1 65583U 25203U   26146.78188166  .00000233  00000+0  20018-3 0  9994
2 65583  81.3045  30.6111 0006645 244.1678 115.8793 13.83616639 35733
PRAETORIAN SDA_621      
1 65584U 25203V   26146.75849814  .00000118  00000+0  96076-4 0  9996
2 65584  81.3037  30.5590 0006448 242.4143 117.6359 13.83798175 35738
PRAETORIAN SDA_601      
1 65585U 25203W   26146.79210114  .00000316  00000+0  27745-3 0  9992
2 65585  81.3063  30.8008 0004536 263.3369  96.7271 13.83270541 35724
